NORAD_CAT_ID,OBJECT_NAME,OBJECT_TYPE,EPOCH,MEAN_MOTION,ECCENTRICITY,INCLINATION,RA_OF_ASC_NODE,ARG_OF_PERICENTER,MEAN_ANOMALY,BSTAR,MEAN_MOTION_DOT,MEAN_MOTION_DDOT,TLE_LINE0,TLE_LINE1,TLE_LINE2,SEMIMAJOR_AXIS,PERIOD,APOGEE,PERIGEE,DECAYED
56479.0,STARLINK-6044,PAYLOAD,2023-07-13 17:58:56,15.69928074,0.000357,70.0,65.2842,269.6687,90.41,1.1501e-05,1.171e-05,0.0,0 STARLINK-6044,1 56479U 23064AH  23194.74926443  .00001171  00000-0  11501-4 0  9996,2 56479  70.0000  65.2842 0003570 269.6687  90.4100 15.69928074 10428,6737.24,91.724,361.51,356.7,0.0
56479.0,STARLINK-6044,PAYLOAD,2023-07-15 00:33:59,15.69911486,0.0003264,69.9992,61.7018,270.3275,89.7546,-2.4421e-05,-3.146e-05,0.0,0 STARLINK-6044,1 56479U 23064AH  23196.02360861 -.00003146  00000-0 -24421-4 0  9996,2 56479  69.9992  61.7018 0003264 270.3275  89.7546 15.69911486 10629,6737.287,91.725,361.351,356.953,0.0
56479.0,STARLINK-6044,PAYLOAD,2023-07-15 17:23:15,15.69925436,0.0003284,69.9996,59.7298,274.1512,85.9308,3.5027e-06,2.08e-06,0.0,0 STARLINK-6044,1 56479U 23064AH  23196.72448725  .00000208  00000-0  35027-5 0  9998,2 56479  69.9996  59.7298 0003284 274.1512  85.9308 15.69925436 10734,6737.247,91.724,361.325,356.9,0.0
56479.0,STARLINK-6044,PAYLOAD,2023-07-16 23:58:17,15.6992939,0.000363,69.9984,56.1471,266.4586,93.6194,1.2703e-05,1.315e-05,0.0,0 STARLINK-6044,1 56479U 23064AH  23197.99881826  .00001315  00000-0  12703-4 0  9996,2 56479  69.9984  56.1471 0003630 266.4586  93.6194 15.69929390 10939,6737.236,91.724,361.547,356.655,0.0
56479.0,STARLINK-6044,PAYLOAD,2023-07-18 15:43:50,15.69932254,0.0003797,69.9974,51.4895,269.2789,90.7971,1.9336e-05,2.113e-05,0.0,0 STARLINK-6044,1 56479U 23064AH  23199.65544934  .00002113  00000-0  19336-4 0  9993,2 56479  69.9974  51.4895 0003797 269.2789  90.7971 15.69932254 11199,6737.228,91.724,361.651,356.535,0.0
56479.0,STARLINK-6044,PAYLOAD,2023-07-19 00:54:22,15.69919808,0.0004436,69.998,50.4155,282.9693,77.1007,-1.3168e-06,-3.72e-06,0.0,0 STARLINK-6044,1 56479U 23064AH  23200.03775526 -.00000372  00000-0 -13168-5 0  9996,2 56479  69.9980  50.4155 0004436 282.9693  77.1007 15.69919808 11257,6737.263,91.724,362.117,356.14,0.0
56479.0,STARLINK-6044,PAYLOAD,2023-07-21 00:18:41,15.69920891,0.0003188,69.9993,44.8595,277.2589,82.8245,2.7245e-05,3.064e-05,0.0,0 STARLINK-6044,1 56479U 23064AH  23202.01297941  .00003064  00000-0  27245-4 0  9995,2 56479  69.9993  44.8595 0003188 277.2589  82.8245 15.69920891 11565,6737.26,91.724,361.273,356.977,0.0
56479.0,STARLINK-6044,PAYLOAD,2023-07-24 12:25:02,15.69928159,0.0003591,69.9999,35.0097,267.3695,92.709,3.2272e-06,1.75e-06,0.0,0 STARLINK-6044,1 56479U 23064AH  23205.51739470  .00000175  00000-0  32272-5 0  9998,2 56479  69.9999  35.0097 0003591 267.3695  92.7090 15.69928159 11761,6737.24,91.724,361.524,356.685,0.0
56479.0,STARLINK-6044,PAYLOAD,2023-07-25 12:53:05,15.69925001,0.0003538,69.9988,32.1423,269.6923,90.3867,4.7089e-06,3.53e-06,0.0,0 STARLINK-6044,1 56479U 23064AH  23206.53686459  .00000353  00000-0  47089-5 0  9999,2 56479  69.9988  32.1423 0003538 269.6923  90.3867 15.69925001 12276,6737.249,91.724,361.497,356.73,0.0
56479.0,STARLINK-6044,PAYLOAD,2023-07-26 11:49:21,15.69924927,0.0003783,69.9977,29.4534,264.9688,95.1076,1.3931e-05,1.463e-05,0.0,0 STARLINK-6044,1 56479U 23064AH  23207.49261420  .00001463  00000-0  13931-4 0  9993,2 56479  69.9977  29.4534 0003783 264.9688  95.1076 15.69924927 12073,6737.249,91.724,361.662,356.565,0.0
56479.0,STARLINK-6044,PAYLOAD,2023-07-27 10:45:39,15.69919423,0.0003654,69.9983,26.7664,269.2031,90.8746,5.696e-06,4.72e-06,0.0,0 STARLINK-6044,1 56479U 23064AH  23208.44837246  .00000472  00000-0  56960-5 0  9993,2 56479  69.9983  26.7664 0003654 269.2031  90.8746 15.69919423 12577,6737.265,91.724,361.591,356.668,0.0
56479.0,STARLINK-6044,PAYLOAD,2023-07-27 12:17:24,15.69919766,0.0003499,69.9984,26.5881,265.488,94.5916,8.9571e-06,8.64e-06,0.0,0 STARLINK-6044,1 56479U 23064AH  23208.51208827  .00000864  00000-0  89571-5 0  9997,2 56479  69.9984  26.5881 0003499 265.4880  94.5916 15.69919766 12237,6737.264,91.724,361.486,356.771,0.0
56479.0,STARLINK-6044,PAYLOAD,2023-07-27 18:24:24,15.69929086,0.0004072,69.9984,25.8711,270.0527,90.0202,1.8326e-05,1.992e-05,0.0,0 STARLINK-6044,1 56479U 23064AH  23208.76694859  .00001992  00000-0  18326-4 0  9990,2 56479  69.9984  25.8711 0004072 270.0527  90.0202 15.69929086 12627,6737.237,91.724,361.845,356.358,0.0
56479.0,STARLINK-6044,PAYLOAD,2023-07-27 21:27:54,15.6993065,0.0003799,70.0004,25.5129,271.0975,88.9786,2.2606e-05,2.507e-05,0.0,0 STARLINK-6044,1 56479U 23064AH  23208.89438215  .00002507  00000-0  22606-4 0  9995,2 56479  70.0004  25.5129 0003799 271.0975  88.9786 15.69930650 12291,6737.232,91.724,361.657,356.538,0.0
56479.0,STARLINK-6044,PAYLOAD,2023-07-28 11:13:40,15.69926231,0.000351,70.0014,23.9016,268.6446,91.4348,6.069e-06,5.17e-06,0.0,0 STARLINK-6044,1 56479U 23064AH  23209.46783434  .00000517  00000-0  60690-5 0  9990,2 56479  70.0014  23.9016 0003510 268.6446  91.4348 15.69926231 12388,6737.245,91.724,361.475,356.745,0.0
56479.0,STARLINK-6044,PAYLOAD,2023-07-28 20:24:11,15.69928402,0.0003522,69.9996,22.826,270.3532,89.7261,1.1445e-05,1.164e-05,0.0,0 STARLINK-6044,1 56479U 23064AH  23209.85013356  .00001164  00000-0  11445-4 0  9994,2 56479  69.9996  22.8260 0003522 270.3532  89.7261 15.69928402 12793,6737.239,91.724,361.477,356.731,0.0
56479.0,STARLINK-6044,PAYLOAD,2023-07-29 20:52:13,15.69926859,0.0003604,69.999,19.9579,270.1399,89.9384,5.4935e-06,4.48e-06,0.0,0 STARLINK-6044,1 56479U 23064AH  23210.86960187  .00000448  00000-0  54935-5 0  9996,2 56479  69.9990  19.9579 0003604 270.1399  89.9384 15.69926859 12957,6737.243,91.724,361.536,356.68,0.0
56479.0,STARLINK-6044,PAYLOAD,2023-07-30 19:48:29,15.69934917,0.0003289,69.9978,17.2708,259.6847,100.3978,1.7974e-05,1.95e-05,0.0,0 STARLINK-6044,1 56479U 23064AH  23211.82534569  .00001950  00000-0  17974-4 0  9994,2 56479  69.9978  17.2708 0003289 259.6847 100.3978 15.69934917 13106,6737.22,91.724,361.301,356.869,0.0
56479.0,STARLINK-6044,PAYLOAD,2023-07-31 11:06:02,15.69918205,0.0003594,69.9975,15.4788,267.2691,92.8094,2.4021e-06,7.6e-07,0.0,0 STARLINK-6044,1 56479U 23064AH  23212.46252652  .00000076  00000-0  24021-5 0  9995,2 56479  69.9975  15.4788 0003594 267.2691  92.8094 15.69918205 13209,6737.268,91.725,361.554,356.712,0.0
56479.0,STARLINK-6044,PAYLOAD,2023-07-31 18:44:47,15.69926936,0.0003845,69.998,14.5856,270.1163,89.9592,3.7996e-05,4.359e-05,0.0,0 STARLINK-6044,1 56479U 23064AH  23212.78110021  .00004359  00000-0  37996-4 0  9995,2 56479  69.9980  14.5856 0003845 270.1163  89.9592 15.69926936 13252,6737.243,91.724,361.699,356.518,0.0
56479.0,STARLINK-6044,PAYLOAD,2023-08-01 14:37:34,15.69921615,0.0003524,69.9982,12.256,269.0999,90.9793,2.2367e-06,5.6e-07,0.0,0 STARLINK-6044,1 56479U 23064AH  23213.60942743  .00000056  00000-0  22367-5 0  9998,2 56479  69.9982  12.2560 0003524 269.0999  90.9793 15.69921615 13387,6737.258,91.724,361.497,356.749,0.0
56479.0,STARLINK-6044,PAYLOAD,2023-08-01 20:44:34,15.6993446,0.0003597,69.9986,11.5399,275.3844,84.6941,1.7187e-05,1.855e-05,0.0,0 STARLINK-6044,1 56479U 23064AH  23213.86428392  .00001855  00000-0  17187-4 0  9996,2 56479  69.9986  11.5399 0003597 275.3844  84.6941 15.69934460 13424,6737.222,91.724,361.51,356.663,0.0
56479.0,STARLINK-6044,PAYLOAD,2023-08-02 10:30:20,15.69929991,0.00038,69.9973,9.9274,271.0916,88.9844,3.0208e-06,1.5e-06,0.0,0 STARLINK-6044,1 56479U 23064AH  23214.43773962  .00000150  00000-0  30208-5 0  9993,2 56479  69.9973   9.9274 0003800 271.0916  88.9844 15.69929991 13515,6737.234,91.724,361.659,356.539,0.0
56479.0,STARLINK-6044,PAYLOAD,2023-08-03 10:58:23,15.69914986,0.0003453,69.9993,7.0594,268.9973,91.0827,-2.4464e-06,-5.07e-06,0.0,0 STARLINK-6044,1 56479U 23064AH  23215.45721424 -.00000507  00000-0 -24464-5 0  9997,2 56479  69.9993   7.0594 0003453 268.9973  91.0827 15.69914986 13674,6737.277,91.725,361.469,356.816,0.0
56479.0,STARLINK-6044,PAYLOAD,2023-08-03 18:37:08,15.69931218,0.0003649,69.9981,6.1647,272.2045,87.8733,1.7739e-05,1.921e-05,0.0,0 STARLINK-6044,1 56479U 23064AH  23215.77578964  .00001921  00000-0  17739-4 0  9996,2 56479  69.9981   6.1647 0003649 272.2045  87.8733 15.69931218 13727,6737.231,91.724,361.554,356.637,0.0
56479.0,STARLINK-6044,PAYLOAD,2023-08-04 09:54:40,15.69913902,0.0003539,69.9976,4.373,268.0111,92.0679,-7.7029e-06,-1.139e-05,0.0,0 STARLINK-6044,1 56479U 23064AH  23216.41296961 -.00001139  00000-0 -77029-5 0  9994,2 56479  69.9976   4.3730 0003539 268.0111  92.0679 15.69913902 13827,6737.28,91.725,361.53,356.761,0.0
56479.0,STARLINK-6044,PAYLOAD,2023-08-04 19:05:10,15.69930887,0.0003659,69.9975,3.298,266.2068,93.8709,1.1251e-05,1.14e-05,0.0,0 STARLINK-6044,1 56479U 23064AH  23216.79525605  .00001140  00000-0  11251-4 0  9999,2 56479  69.9975   3.2980 0003659 266.2068  93.8709 15.69930887 13885,6737.232,91.724,361.562,356.632,0.0
56479.0,STARLINK-6044,PAYLOAD,2023-08-05 18:01:27,15.69926611,0.0003694,69.9976,0.6118,266.6821,93.3952,1.2582e-05,1.3e-05,0.0,0 STARLINK-6044,1 56479U 23064AH  23217.75100917  .00001300  00000-0  12582-4 0  9997,2 56479  69.9976   0.6118 0003694 266.6821  93.3952 15.69926611 14033,6737.244,91.724,361.598,356.62,0.0
56479.0,STARLINK-6044,PAYLOAD,2023-08-05 19:33:15,15.69880684,0.0003668,69.997,0.4342,265.2621,94.8155,-4.8007e-05,-5.971e-05,0.0,0 STARLINK-6044,1 56479U 23064AH  23217.81476525 -.00005971  00000-0 -48007-4 0  9996,2 56479  69.9970   0.4342 0003668 265.2621  94.8155 15.69880684 14049,6737.375,91.727,361.712,356.769,0.0
56479.0,STARLINK-6044,PAYLOAD,2023-08-06 10:50:45,15.69910834,0.0001993,69.9976,358.6409,224.7057,135.3978,1.6019e-05,1.713e-05,0.0,0 STARLINK-6044,1 56479U 23064AH  23218.45191491  .00001713  00000-0  16019-4 0  9999,2 56479  69.9976 358.6409 0001993 224.7057 135.3978 15.69910834 14145,6737.289,91.725,360.497,357.811,0.0
